INTELSAT 902 (IS-902)   
1 26900U 01039A   26116.76925703 -.00000290  00000+0  00000+0 0  9995
2 26900   5.9889  72.3959 0004516 319.9031  49.3051  1.00270813 90187
INTELSAT 904 (IS-904)   
1 27380U 02007A   26116.70164001 -.00000233  00000+0  00000+0 0  9991
2 27380   6.7944  69.7905 0007747 338.9290  27.0697  1.00269764 51256
DIRECTV 5 (TEMPO 1)     
1 27426U 02023A   26116.90004081 -.00000064  00000+0  00000+0 0  9995
2 27426   4.7493  75.9322 0003483 322.6862  30.1841  1.00271968 87607
INTELSAT 905 (IS-905)   
1 27438U 02027A   26116.54100325  .00000086  00000+0  00000+0 0  9993
2 27438   6.6267  70.4097 0003443 338.8087 222.8894  1.00273539 50843
GALAXY 3C (G-3C)        
1 27445U 02030A   26116.90298749 -.00000160  00000+0  00000+0 0  9997
2 27445   3.5995  78.6605 0001602  24.7368 341.7100  1.00271778 45981
INTELSAT 906 (IS-906)   
1 27513U 02041A   26116.96691704  .00000006  00000+0  00000+0 0  9997
2 27513   5.6740  73.5356 0004033 335.9906 217.6830  1.00270667 86512
GALAXY 13 (HORIZONS-1)  
1 27954U 03044A   26116.74949694  .00000122  00000+0  00000+0 0  9999
2 27954   1.2864  84.4650 0002204 314.3392 295.7635  1.00273453 46057
INTELSAT 10-02          
1 28358U 04022A   26116.92162089  .00000000  00000+0  00000+0 0  9995
2 28358   0.0152  76.2041 0001267 357.4574 112.0034  1.00269811 80048
DIRECTV 8               
1 28659U 05019A   26116.89822080  .00000000  00000+0  00000+0 0  9996
2 28659   0.0135 229.0326 0003243 174.7289  15.4390  1.00271044 76559
GALAXY 28 (G-28)        
1 28702U 05022A   26116.84518323 -.00000209  00000+0  00000+0 0  9998
2 28702   3.1689  79.5440 0003239 317.9585  94.4845  1.00266347 51461
GALAXY 16 (G-16)        
1 29236U 06023A   26116.83079650 -.00000139  00000+0  00000+0 0  9999
2 29236   0.0208 227.6981 0003128 181.7838   5.4417  1.00274271 72452
DIRECTV 9S              
1 29494U 06043A   26116.90177416 -.00000122  00000+0  00000+0 0  9996
2 29494   2.2904  81.4880 0004217 329.8982  26.9450  1.00271679 50869
GALAXY 17 (G-17)        
1 31307U 07016B   26116.90498083 -.00000215  00000+0  00000+0 0  9992
2 31307   2.8445  80.5181 0004324 329.7320  45.4397  1.00270906 69294
INTELSAT 11 (IS-11)     
1 32253U 07044B   26116.82475192 -.00000211  00000+0  00000+0 0  9997
2 32253   3.4338  79.2684 0001377 224.7794 199.3004  0.99052978 67948
HORIZONS-2              
1 32388U 07063B   26116.90723417 -.00000262  00000+0  00000+0 0  9998
2 32388   2.4719  81.2280 0003451 322.2571  64.2293  1.00272480 67301
DIRECTV 11              
1 32729U 08013A   26116.90220749 -.00000137  00000+0  00000+0 0  9994
2 32729   0.0135 110.7603 0000306 252.2021  77.5357  1.00271509 45070
GALAXY 18 (G-18)        
1 32951U 08024A   26116.89735413  .00000014  00000+0  00000+0 0  9993
2 32951   0.0165 261.4722 0003235 141.3125  12.1515  1.00271864 45337
INTELSAT 25 (IS-25)     
1 33153U 08034A   26113.08239256 -.00000278  00000+0  00000+0 0  9994
2 33153   2.5670  80.9425 0002165 274.6153 207.9060  0.99965107 65143
GALAXY 19 (G-19)        
1 33376U 08045A   26116.90264082 -.00000150  00000+0  00000+0 0  9991
2 33376   0.0179 248.0505 0003338 164.0409  30.7488  1.00271988 64383
FM-5                    
1 35493U 09034A   26116.90472083 -.00000211  00000+0  00000+0 0  9992
2 35493   0.0152 265.5745 0000643  26.8654 162.0121  1.00271527 46123
INTELSAT 14 (IS-14)     
1 36097U 09064A   26116.91295419 -.00000285  00000+0  00000+0 0  9994
2 36097   0.0113  68.8700 0002507 327.4118 102.2897  1.00272130 60091
INTELSAT 15 (IS-15)     
1 36106U 09067A   26116.91301925 -.00000196  00000+0  00000+0 0  9999
2 36106   0.0306  98.1805 0002269 298.2351 232.3342  1.00271819 40717
DIRECTV 12              
1 36131U 09075A   26116.90151416  .00000000  00000+0  00000+0 0  9996
2 36131   0.0086 101.8488 0000336 315.0050  19.8651  1.00270008 46037
INTELSAT 16 (IS-16)     
1 36397U 10006A   26116.90671417 -.00000256  00000+0  00000+0 0  9998
2 36397   0.0165 280.3400 0002112 144.6267  40.1576  1.00270682 59143
XM-5                    
1 37185U 10053A   26116.72118046 -.00000035  00000+0  00000+0 0  9995
2 37185   0.0629 271.2968 0003600 275.7960 172.0599  1.00272551 56965
INTELSAT 17 (IS-17)     
1 37238U 10065B   26116.96691704 -.00000012  00000+0  00000+0 0  9995
2 37238   0.0170 171.7707 0002797 241.1085 216.1729  1.00271536 52739
INTELSAT 28 (IS-28)     
1 37392U 11016A   26116.84422988 -.00000235  00000+0  00000+0 0  9993
2 37392   1.6753  83.2122 0004188 317.0091  86.8300  1.00270824 52778
INTELSAT 18 (IS-18)     
1 37834U 11056A   26116.81484977  .00000000  00000+0  00000+0 0  9990
2 37834   0.0173 242.9025 0001938 150.3070 294.9497  1.00270495 53290
INTELSAT 22 (IS-22)     
1 38098U 12011A   26116.95997272 -.00000069  00000+0  00000+0 0  9993
2 38098   0.0219 107.4852 0001760 293.2575 231.8995  1.00270687  6673
INTELSAT 19 (IS-19)     
1 38356U 12030A   26116.74083024 -.00000069  00000+0  00000+0 0  9999
2 38356   0.0405  81.6844 0002959 310.3748 255.3746  1.00268960 49937
INTELSAT 20 (IS-20)     
1 38740U 12043A   26116.65015978 -.00000036  00000+0  00000+0 0  9997
2 38740   0.0197 146.3833 0001999  31.3923 339.4161  1.00270606 50237
INTELSAT 21 (IS-21)     
1 38749U 12045A   26116.91035418 -.00000296  00000+0  00000+0 0  9996
2 38749   0.0588  79.1203 0002079 328.9502  76.5569  1.00270966 50018
INTELSAT 23 (IS-23)     
1 38867U 12057A   26116.91130752 -.00000296  00000+0  00000+0 0  9997
2 38867   0.0189 266.2752 0000323 347.5724 236.1136  1.00275557 49447
FM-6                    
1 39360U 13058A   26116.61358630 -.00000029  00000+0  00000+0 0  9996
2 39360   0.0112 244.6103 0000945  98.8953 335.6678  1.00279502 45550
INTELSAT 30 (IS-30)     
1 40271U 14062A   26114.39488937 -.00000165  00000+0  00000+0 0  9993
2 40271   0.0073 224.7449 0002247  46.3663 348.4158  1.00269572  6259
DIRECTV 14              
1 40333U 14078B   26116.90220749 -.00000136  00000+0  00000+0 0  9991
2 40333   0.0033 304.5877 0000011 101.1716  34.6930  1.00271295 41528
DIRECTV 15              
1 40663U 15026A   26116.90142749  .00000000  00000+0  00000+0 0  9993
2 40663   0.0134 119.1999 0000095  28.9327 288.4056  1.00268462 39940
SKY MEXICO-1            
1 40664U 15026B   26116.90619417  .00000000  00000+0  00000+0 0  9995
2 40664   0.0212 105.0550 0002192 293.8962  63.3678  1.00268654 39946
INTELSAT 34 (IS-34)     
1 40874U 15039A   26116.91078751 -.00000297  00000+0  00000+0 0  9992
2 40874   0.0156 282.4023 0000424  53.2315 151.6629  1.00271818 39120
INTELSAT 31 (IS-31)     
1 41581U 16035A   26116.90298749 -.00000162  00000+0  00000+0 0  9996
2 41581   0.0121 236.8878 0002176  37.9465 170.0954  1.00271577 36169
INTELSAT 36 (IS-36)     
1 41747U 16053A   26116.65015978 -.00000036  00000+0  00000+0 0  9993
2 41747   0.0148 322.2759 0001426 357.3225 197.6014  1.00270682 35448
INTELSAT 32E (IS-32E)   
1 41945U 17007B   26116.84197655  .00000000  00000+0  00000+0 0  9997
2 41945   0.0202 246.5188 0000593  89.3738 138.8910  1.00268397 33718
INTELSAT 35E (IS-35E)   
1 42818U 17041A   26116.70112001  .00000000  00000+0  00000+0 0  9992
2 42818   0.0127 225.3125 0002208 170.3183  36.9938  1.00271393 32290
INTELSAT 37E (IS-37E)   
1 42950U 17059A   26116.91824088  .00000000  00000+0  00000+0 0  9996
2 42950   0.0177 240.7905 0002338 182.1664 104.5258  1.00269677 31555
AZERSPACE 2 (IS-38)     
1 43632U 18074A   26116.95127089  .00000126  00000+0  00000+0 0  9992
2 43632   0.0207 255.8325 0001436 130.5832 216.0962  1.00270858 27933
HORIZONS-3E             
1 43633U 18074B   26116.81268309 -.00000042  00000+0  00000+0 0  9997
2 43633   0.0404  76.5337 0000622 252.9400 346.8895  1.00270591 27829
AT&T T-16               
1 44333U 19034A   26116.90186082 -.00000126  00000+0  00000+0 0  9992
2 44333   0.0417  75.1464 0000520 183.6894 179.8763  1.00268150 25117
INTELSAT 39 (IS-39)     
1 44476U 19049B   26116.95946480  .00000023  00000+0  00000+0 0  9992
2 44476   0.0216 255.0289 0000609 351.5277  15.7483  1.00271026 24612
GALAXY 30 (G-30)        
1 46114U 20056C   26116.68317993  .00000000  00000+0  00000+0 0  9999
2 46114   0.0129 235.3307 0002479 173.0121 287.2804  1.00271187 20774
GALAXY 33 (G-33)        
1 54026U 22128A   26116.68153326  .00000067  00000+0  00000+0 0  9993
2 54026   0.0161 277.5524 0001780 103.9818 305.4907  1.00273183 13226
GALAXY 34 (G-34)        
1 54027U 22128B   26116.72553318  .00000047  00000+0  00000+0 0  9992
2 54027   0.0103 238.5432 0001533 156.3845 311.9822  1.00273854 13397
GALAXY 31 (G-31)        
1 54243U 22153A   26116.89778747  .00000002  00000+0  00000+0 0  9994
2 54243   0.0121 241.5116 0001314 156.7569  18.8204  1.00274312  6618
GALAXY 32 (G-32)        
1 54244U 22153B   26116.54729101 -.00000186  00000+0  00000+0 0  9991
2 54244   0.0160 281.6637 0002791  99.2496 299.6544  1.00269851 12621
GALAXY 35 (G-35)        
1 54741U 22170A   26116.90342082 -.00000173  00000+0  00000+0 0  9997
2 54741   0.0325 102.9219 0002020 292.3017  51.7914  1.00271677 12376
GALAXY 36 (G-36)        
1 54742U 22170B   26116.90420082 -.00000196  00000+0  00000+0 0  9990
2 54742   0.0122 193.7185 0002763 231.0726  26.6195  1.00271490 12255
GALAXY 37 (G-37)        
1 57493U 23112A   26116.68274660  .00000000  00000+0  00000+0 0  9990
2 57493   0.0133 243.6122 0002178 150.2007 299.6602  1.00270220 10021
